[{"OBJECT_NAME":"STARLINK-30489","OBJECT_ID":"2023-151L","EPOCH":"2026-03-09T01:55:19.776000","MEAN_MOTION":15.2671903,"ECCENTRICITY":0.00023706,"INCLINATION":43.0031,"RA_OF_ASC_NODE":339.3962,"ARG_OF_PERICENTER":252.2381,"MEAN_ANOMALY":107.8212,"EPHEMERIS_TYPE":0,"CLASSIFICATION_TYPE":"U","NORAD_CAT_ID":57974,"ELEMENT_SET_NO":999,"REV_AT_EPOCH":13567,"BSTAR":-4.4439226e-5,"MEAN_MOTION_DOT":-1.451e-5,"MEAN_MOTION_DDOT":0},{"OBJECT_NAME":"TOMORROW-S3","OBJECT_ID":"2024-247R","EPOCH":"2026-03-09T11:56:51.820800","MEAN_MOTION":15.27672122,"ECCENTRICITY":3.967e-5,"INCLINATION":44.9999,"RA_OF_ASC_NODE":117.9871,"ARG_OF_PERICENTER":320.9462,"MEAN_ANOMALY":39.1392,"EPHEMERIS_TYPE":0,"CLASSIFICATION_TYPE":"U","NORAD_CAT_ID":62392,"ELEMENT_SET_NO":999,"REV_AT_EPOCH":6770,"BSTAR":0.00028857954,"MEAN_MOTION_DOT":7.664e-5,"MEAN_MOTION_DDOT":0}]
